{"type": "FeatureCollection", "features": [{"type": "Feature", "properties": {"norad_id": 25590, "name": "COSMOS 2361", "group": "musson", "lat": -81.48000144265156, "lon": -146.5907807356711, "alt_km": 975.2984414928933, "timestamp": "2025-12-21T14:40:48.186320+00:00", "meta": {"OBJECT_NAME": "COSMOS 2361", "OBJECT_ID": "1998-076A", "EPOCH": "2025-12-21T01:28:32.841408", "MEAN_MOTION": 13.73218455, "ECCENTRICITY": 0.00301815, "INCLINATION": 82.9341, "RA_OF_ASC_NODE": 337.9311, "ARG_OF_PERICENTER": 241.479, "MEAN_ANOMALY": 185.2761, "EPHEMERIS_TYPE": 0, "CLASSIFICATION_TYPE": "U", "NORAD_CAT_ID": 25590, "ELEMENT_SET_NO": 999, "REV_AT_EPOCH": 35225, "BSTAR": 3.7397716e-05, "MEAN_MOTION_DOT": 5e-07, "MEAN_MOTION_DDOT": 0}, "tle": {"line1": "1 25590U 98076A   25355.06149122  .00000050  00000+0  37398-4 0  9994", "line2": "2 25590  82.9341 337.9311 0030181 241.4790 185.2761 13.73218455352253"}}, "geometry": {"type": "Point", "coordinates": [-146.5907807356711, -81.48000144265156]}}, {"type": "Feature", "properties": {"norad_id": 26818, "name": "COSMOS 2378", "group": "musson", "lat": 6.977456273967608, "lon": -5.983277538827721, "alt_km": 1010.729733516162, "timestamp": "2025-12-21T14:40:48.186342+00:00", "meta": {"OBJECT_NAME": "COSMOS 2378", "OBJECT_ID": "2001-023A", "EPOCH": "2025-12-21T02:44:41.103168", "MEAN_MOTION": 13.74142635, "ECCENTRICITY": 0.00329167, "INCLINATION": 82.9269, "RA_OF_ASC_NODE": 353.5147, "ARG_OF_PERICENTER": 181.3472, "MEAN_ANOMALY": 247.1085, "EPHEMERIS_TYPE": 0, "CLASSIFICATION_TYPE": "U", "NORAD_CAT_ID": 26818, "ELEMENT_SET_NO": 999, "REV_AT_EPOCH": 23038, "BSTAR": 2.2571159e-05, "MEAN_MOTION_DOT": 3.7e-07, "MEAN_MOTION_DDOT": 0}, "tle": {"line1": "1 26818U 01023A   25355.11436462  .00000037  00000+0  22571-4 0  9998", "line2": "2 26818  82.9269 353.5147 0032916 181.3472 247.1085 13.74142635230387"}}, "geometry": {"type": "Point", "coordinates": [-5.983277538827721, 6.977456273967608]}}, {"type": "Feature", "properties": {"norad_id": 27436, "name": "COSMOS 2389", "group": "musson", "lat": -65.21957339754772, "lon": 135.96316437321346, "alt_km": 1018.5826455486304, "timestamp": "2025-12-21T14:40:48.186355+00:00", "meta": {"OBJECT_NAME": "COSMOS 2389", "OBJECT_ID": "2002-026A", "EPOCH": "2025-12-21T05:18:49.494816", "MEAN_MOTION": 13.75155469, "ECCENTRICITY": 0.00472919, "INCLINATION": 82.951, "RA_OF_ASC_NODE": 300.7059, "ARG_OF_PERICENTER": 37.6336, "MEAN_ANOMALY": 77.8383, "EPHEMERIS_TYPE": 0, "CLASSIFICATION_TYPE": "U", "NORAD_CAT_ID": 27436, "ELEMENT_SET_NO": 999, "REV_AT_EPOCH": 18265, "BSTAR": 3.7349024e-05, "MEAN_MOTION_DOT": 5.1e-07, "MEAN_MOTION_DDOT": 0}, "tle": {"line1": "1 27436U 02026A   25355.22140619  .00000051  00000+0  37349-4 0  9992", "line2": "2 27436  82.9510 300.7059 0047291  37.6336  77.8383 13.75155469182658"}}, "geometry": {"type": "Point", "coordinates": [135.96316437321346, -65.21957339754772]}}, {"type": "Feature", "properties": {"norad_id": 27818, "name": "COSMOS 2398", "group": "musson", "lat": 67.96004910083582, "lon": 68.35819087480138, "alt_km": 962.1701731123712, "timestamp": "2025-12-21T14:40:48.186367+00:00", "meta": {"OBJECT_NAME": "COSMOS 2398", "OBJECT_ID": "2003-023A", "EPOCH": "2025-12-21T04:10:11.059968", "MEAN_MOTION": 13.72386519, "ECCENTRICITY": 0.00327168, "INCLINATION": 82.9484, "RA_OF_ASC_NODE": 266.4834, "ARG_OF_PERICENTER": 89.3246, "MEAN_ANOMALY": 19.0113, "EPHEMERIS_TYPE": 0, "CLASSIFICATION_TYPE": "U", "NORAD_CAT_ID": 27818, "ELEMENT_SET_NO": 999, "REV_AT_EPOCH": 12932, "BSTAR": 5.4780084e-05, "MEAN_MOTION_DOT": 6.6e-07, "MEAN_MOTION_DDOT": 0}, "tle": {"line1": "1 27818U 03023A   25355.17373912  .00000066  00000+0  54780-4 0  9996", "line2": "2 27818  82.9484 266.4834 0032716  89.3246  19.0113 13.72386519129324"}}, "geometry": {"type": "Point", "coordinates": [68.35819087480138, 67.96004910083582]}}, {"type": "Feature", "properties": {"norad_id": 28380, "name": "COSMOS 2407", "group": "musson", "lat": 70.74556980448739, "lon": -132.95816571487552, "alt_km": 948.086766660148, "timestamp": "2025-12-21T14:40:48.186378+00:00", "meta": {"OBJECT_NAME": "COSMOS 2407", "OBJECT_ID": "2004-028A", "EPOCH": "2025-12-21T00:54:24.146208", "MEAN_MOTION": 13.76314621, "ECCENTRICITY": 0.00399477, "INCLINATION": 82.9598, "RA_OF_ASC_NODE": 206.7488, "ARG_OF_PERICENTER": 32.2137, "MEAN_ANOMALY": 77.688, "EPHEMERIS_TYPE": 0, "CLASSIFICATION_TYPE": "U", "NORAD_CAT_ID": 28380, "ELEMENT_SET_NO": 999, "REV_AT_EPOCH": 7537, "BSTAR": 5.5827191e-05, "MEAN_MOTION_DOT": 7e-07, "MEAN_MOTION_DDOT": 0}, "tle": {"line1": "1 28380U 04028A   25355.03777947  .00000070  00000+0  55827-4 0  9996", "line2": "2 28380  82.9598 206.7488 0039947  32.2137  77.6880 13.76314621 75371"}}, "geometry": {"type": "Point", "coordinates": [-132.95816571487552, 70.74556980448739]}}, {"type": "Feature", "properties": {"norad_id": 28521, "name": "COSMOS 2414", "group": "musson", "lat": -15.471247222347584, "lon": 175.98781150056476, "alt_km": 960.218503287073, "timestamp": "2025-12-21T14:40:48.186389+00:00", "meta": {"OBJECT_NAME": "COSMOS 2414", "OBJECT_ID": "2005-002A", "EPOCH": "2025-12-21T00:54:48.931776", "MEAN_MOTION": 13.87904051, "ECCENTRICITY": 0.00412903, "INCLINATION": 82.9488, "RA_OF_ASC_NODE": 178.3848, "ARG_OF_PERICENTER": 116.6292, "MEAN_ANOMALY": 243.9111, "EPHEMERIS_TYPE": 0, "CLASSIFICATION_TYPE": "U", "NORAD_CAT_ID": 28521, "ELEMENT_SET_NO": 999, "REV_AT_EPOCH": 5910, "BSTAR": 4.2018365e-05, "MEAN_MOTION_DOT": 6.6e-07, "MEAN_MOTION_DDOT": 0}, "tle": {"line1": "1 28521U 05002A   25355.03806634  .00000066  00000+0  42018-4 0  9995", "line2": "2 28521  82.9488 178.3848 0041290 116.6292 243.9111 13.87904051 59105"}}, "geometry": {"type": "Point", "coordinates": [175.98781150056476, -15.471247222347584]}}, {"type": "Feature", "properties": {"norad_id": 32052, "name": "COSMOS 2429", "group": "musson", "lat": 71.10936696314485, "lon": -2.1291355085592834, "alt_km": 959.4930036064306, "timestamp": "2025-12-21T14:40:48.186400+00:00", "meta": {"OBJECT_NAME": "COSMOS 2429", "OBJECT_ID": "2007-038A", "EPOCH": "2025-12-21T05:36:01.117728", "MEAN_MOTION": 13.75150229, "ECCENTRICITY": 0.00387574, "INCLINATION": 82.9806, "RA_OF_ASC_NODE": 337.047, "ARG_OF_PERICENTER": 14.5533, "MEAN_ANOMALY": 345.673, "EPHEMERIS_TYPE": 0, "CLASSIFICATION_TYPE": "U", "NORAD_CAT_ID": 32052, "ELEMENT_SET_NO": 999, "REV_AT_EPOCH": 91719, "BSTAR": 3.8596986e-05, "MEAN_MOTION_DOT": 5.2e-07, "MEAN_MOTION_DDOT": 0}, "tle": {"line1": "1 32052U 07038A   25355.23334627  .00000052  00000+0  38597-4 0  9992", "line2": "2 32052  82.9806 337.0470 0038757  14.5533 345.6730 13.75150229917192"}}, "geometry": {"type": "Point", "coordinates": [-2.1291355085592834, 71.10936696314485]}}, {"type": "Feature", "properties": {"norad_id": 35635, "name": "COSMOS 2454", "group": "musson", "lat": 77.8771762609398, "lon": -53.22493662101487, "alt_km": 912.1086279785077, "timestamp": "2025-12-21T14:40:48.186410+00:00", "meta": {"OBJECT_NAME": "COSMOS 2454", "OBJECT_ID": "2009-039A", "EPOCH": "2025-12-21T00:58:54.605856", "MEAN_MOTION": 13.89929585, "ECCENTRICITY": 0.00202009, "INCLINATION": 82.9557, "RA_OF_ASC_NODE": 162.3521, "ARG_OF_PERICENTER": 51.4614, "MEAN_ANOMALY": 73.9313, "EPHEMERIS_TYPE": 0, "CLASSIFICATION_TYPE": "U", "NORAD_CAT_ID": 35635, "ELEMENT_SET_NO": 999, "REV_AT_EPOCH": 83265, "BSTAR": 3.0101294e-05, "MEAN_MOTION_DOT": 5.3e-07, "MEAN_MOTION_DDOT": 0}, "tle": {"line1": "1 35635U 09039A   25355.04090979  .00000053  00000+0  30101-4 0  9997", "line2": "2 35635  82.9557 162.3521 0020200  51.4614  73.9313 13.89929585832654"}}, "geometry": {"type": "Point", "coordinates": [-53.22493662101487, 77.8771762609398]}}, {"type": "Feature", "properties": {"norad_id": 36519, "name": "COSMOS 2463", "group": "musson", "lat": -80.1168830638487, "lon": -24.977694816201367, "alt_km": 976.2066782250604, "timestamp": "2025-12-21T14:40:48.186421+00:00", "meta": {"OBJECT_NAME": "COSMOS 2463", "OBJECT_ID": "2010-017A", "EPOCH": "2025-12-21T03:07:08.285664", "MEAN_MOTION": 13.7164984, "ECCENTRICITY": 0.00347484, "INCLINATION": 82.9604, "RA_OF_ASC_NODE": 20.5467, "ARG_OF_PERICENTER": 263.9037, "MEAN_ANOMALY": 155.6361, "EPHEMERIS_TYPE": 0, "CLASSIFICATION_TYPE": "U", "NORAD_CAT_ID": 36519, "ELEMENT_SET_NO": 999, "REV_AT_EPOCH": 78352, "BSTAR": 3.9237722e-05, "MEAN_MOTION_DOT": 5e-07, "MEAN_MOTION_DDOT": 0}, "tle": {"line1": "1 36519U 10017A   25355.12995701  .00000050  00000+0  39238-4 0  9990", "line2": "2 36519  82.9604  20.5467 0034748 263.9037 155.6361 13.71649840783520"}}, "geometry": {"type": "Point", "coordinates": [-24.977694816201367, -80.1168830638487]}}]}